NOAA 15                 
1 25338U 98030A   22249.52310812  .00000108  00000+0  63511-4 0  9990
2 25338  98.6401 277.9815 0011387  64.7266 295.5093 14.26167471264577
DMSP 5D-3 F15 (USA 147) 
1 25991U 99067A   22249.51232155  .00000100  00000+0  73481-4 0  9997
2 25991  99.0586 242.4936 0009506 324.3518 204.8856 14.16566275175246
METEOSAT-8 (MSG-1)      
1 27509U 02040B   22249.07549417  .00000123  00000+0  00000+0 0  9999
2 27509   8.1836  50.1956 0001726 115.2672 248.3007  1.00275104 73427
DMSP 5D-3 F16 (USA 172) 
1 28054U 03048A   22249.50351870  .00000061  00000+0  56387-4 0  9991
2 28054  98.9946 240.7517 0008488  87.8860  23.8659 14.13680561974476
NOAA 18                 
1 28654U 05018A   22249.44012428  .00000113  00000+0  84607-4 0  9996
2 28654  98.9436 319.7918 0015322 102.6219 257.6667 14.12771921891415
METEOSAT-9 (MSG-2)      
1 28912U 05049B   22249.16056521  .00000115  00000+0  00000+0 0  9990
2 28912   6.1962  65.7563 0000671 181.1966 201.7600  1.00274604 61249
EWS-G1 (GOES 13)        
1 29155U 06018A   22249.48585197  .00000020  00000+0  00000+0 0  9993
2 29155   0.7879  96.0695 0006142 105.0044  20.9444  1.00274378 29542
DMSP 5D-3 F17 (USA 191) 
1 29522U 06050A   22249.51728785  .00000098  00000+0  74358-4 0  9990
2 29522  98.7671 263.0515 0010524  36.4421 323.7466 14.14109345817362
FENGYUN 3A              
1 32958U 08026A   22249.50159138  .00000074  00000+0  55940-4 0  9991
2 32958  98.5103 208.8502 0009342 142.4879 217.6951 14.18736526739714
FENGYUN 2E              
1 33463U 08066A   22248.45120679 -.00000208  00000+0  00000+0 0  9990
2 33463   6.0780  64.8250 0002371  28.9876 139.3928  1.00264092 50240
NOAA 19                 
1 33591U 09005A   22249.52137521  .00000126  00000+0  92935-4 0  9990
2 33591  99.1427 285.3399 0013221 323.8177  36.2099 14.12605527699639
GOES 14                 
1 35491U 09033A   22249.50298144 -.00000107  00000+0  00000+0 0  9996
2 35491   0.4238 267.8335 0017169 302.4131 211.8873  1.00273028 48277
METEOR-M 1              
1 35865U 09049A   22249.50529857  .00000075  00000+0  52746-4 0  9998
2 35865  98.5365 217.3908 0002492  19.9016 340.2259 14.22353573673206
DMSP 5D-3 F18 (USA 210) 
1 35951U 09057A   22249.52355902  .00000181  00000+0  11878-3 0  9991
2 35951  98.7299 226.9394 0010281 211.1533 148.9032 14.13549264664587
GOES 15                 
1 36411U 10008A   22249.48477616  .00000037  00000+0  00000+0 0  9994
2 36411   0.3842 276.8819 0004944 250.7384 224.6305  1.00277420 45830
COMS 1                  
1 36744U 10032A   22249.50985626 -.00000360  00000+0  00000+0 0  9998
2 36744   1.2812  92.0581 0001027  62.0048 143.2204  1.00271160 37256
FENGYUN 3B              
1 37214U 10059A   22249.49911436 -.00000057  00000+0 -55998-5 0  9992
2 37214  99.0943 256.9173 0023041 125.1833 235.1507 14.14263001612418
SUOMI NPP               
1 37849U 11061A   22249.48348793  .00000041  00000+0  40162-4 0  9996
2 37849  98.7350 186.9220 0001231  81.0531  52.6281 14.19541353562696
FENGYUN 2F              
1 38049U 12002A   22249.50403271 -.00000371  00000+0  00000+0 0  9990
2 38049   3.9842  79.0439 0000621 106.0154  93.8155  1.00260998 39042
METEOSAT-10 (MSG-3)     
1 38552U 12035B   22249.40743941  .00000048  00000+0  00000+0 0  9995
2 38552   1.6442  45.4588 0000547  70.1139  25.9389  1.00276858 37028
METOP-B                 
1 38771U 12049A   22249.51242174  .00000054  00000+0  44562-4 0  9990
2 38771  98.6888 308.0388 0001431 128.7956 343.3100 14.21505061517251
FENGYUN 3C              
1 39260U 13052A   22249.39337723  .00000127  00000+0  85275-4 0  9997
2 39260  98.4499 273.3972 0011861  46.2593 313.9568 14.15941068463371
METEOR-M 2              
1 40069U 14037A   22249.52579631 -.00000030  00000+0  51169-5 0  9991
2 40069  98.4312 263.6287 0006933  87.5083 272.6894 14.20716794423372
HIMAWARI-8              
1 40267U 14060A   22249.51356094 -.00000291  00000+0  00000+0 0  9993
2 40267   0.0349 235.4493 0001176 279.1082 156.5450  1.00269831 28928
FENGYUN 2G              
1 40367U 14090A   22249.50111387 -.00000316  00000+0  00000+0 0  9998
2 40367   2.1336  88.6537 0001940 206.8850 329.5476  1.00283317 28165
METEOSAT-11 (MSG-4)     
1 40732U 15034A   22249.36661966 -.00000022  00000+0  00000+0 0  9994
2 40732   0.4578  70.7728 0000928  46.3887 359.8175  1.00271345 26197
ELEKTRO-L 2             
1 41105U 15074A   22249.09077199 -.00000129  00000+0  00000+0 0  9990
2 41105   3.1847  87.1987 0002442  99.8609 176.3355  1.00271514 24679
HIMAWARI-9              
1 41836U 16064A   22249.51356095 -.00000290  00000+0  00000+0 0  9992
2 41836   0.0211 263.5639 0000619 205.9041 201.7676  1.00272030 21354
GOES 16                 
1 41866U 16071A   22249.49524021 -.00000263  00000+0  00000+0 0  9996
2 41866   0.0711 283.9434 0000500 249.0495 275.6590  1.00271902 21275
FENGYUN 4A              
1 41882U 16077A   22249.55438564 -.00000346  00000+0  00000+0 0  9995
2 41882   0.1708  85.9659 0002239  54.0139 149.8676  1.00272904 21145
CYGFM05                 
1 41884U 16078A   22249.54823967  .00002940  00000+0  14807-3 0  9997
2 41884  34.9566  56.6353 0013982  96.9713 263.2590 15.16672310317107
CYGFM04                 
1 41885U 16078B   22249.50580908  .00003142  00000+0  15574-3 0  9996
2 41885  34.9498  45.6745 0012520 115.8330 244.3674 15.17212303317148
CYGFM02                 
1 41886U 16078C   22249.49456120  .00003430  00000+0  16968-3 0  9991
2 41886  34.9591  47.9801 0013177 108.7019 251.5125 15.17250157317224
CYGFM01                 
1 41887U 16078D   22249.49470877  .00002962  00000+0  14997-3 0  9996
2 41887  34.9533  59.4907 0014417  95.7346 264.5010 15.16476810317044
CYGFM08                 
1 41888U 16078E   22248.66436829  .00003268  00000+0  16311-3 0  9996
2 41888  34.9504  56.9357 0013665 100.8193 259.4058 15.16948300317050
CYGFM06                 
1 41889U 16078F   22249.53985818  .00003279  00000+0  16226-3 0  9998
2 41889  34.9584  46.3631 0012152 109.0065 251.1965 15.17265549317173
CYGFM07                 
1 41890U 16078G   22249.46201965  .00003154  00000+0  15647-3 0  9994
2 41890  34.9522  45.6997 0011952 113.1344 247.0629 15.17196571317143
CYGFM03                 
1 41891U 16078H   22249.13177538  .00003152  00000+0  15637-3 0  9994
2 41891  34.9557  48.2534 0011450 107.7101 252.4862 15.17200228317088
FENGYUN 3D              
1 43010U 17072A   22249.42849536 -.00000192  00000+0 -70591-4 0  9994
2 43010  98.8190 193.6459 0002450  49.6292 310.5084 14.19219613249255
NOAA 20                 
1 43013U 17073A   22249.49182168  .00000044  00000+0  41548-4 0  9990
2 43013  98.7189 186.7889 0001139 112.0940 248.0357 14.19541352248720
GOES 17                 
1 43226U 18022A   22249.48285775  .00000083  00000+0  00000+0 0  9994
2 43226   0.0941 281.3250 0000517 209.0007 251.7453  1.00272023 16589
FENGYUN 2H              
1 43491U 18050A   22249.49235301 -.00000139  00000+0  00000+0 0  9993
2 43491   1.3475  95.6004 0004453  48.7522  97.3141  1.00266123 15676
METOP-C                 
1 43689U 18087A   22249.45711514  .00000053  00000+0  43961-4 0  9995
2 43689  98.6771 308.1018 0003306 147.1062 213.0322 14.21504975198812
GEO-KOMPSAT-2A          
1 43823U 18100A   22248.74662510 -.00000356  00000+0  00000+0 0  9992
2 43823   0.0277  45.7255 0001783  85.6804 250.4578  1.00271753 13771
METEOR-M2 2             
1 44387U 19038A   22249.46410791 -.00000116  00000+0 -31378-4 0  9993
2 44387  98.7294 209.6221 0002167  64.2938 295.8470 14.23718080164939
FENGYUN 3E              
1 49008U 21062A   22249.48896694 -.00000030  00000+0  62832-5 0  9994
2 49008  98.7142 250.1787 0002824 104.3098 255.8399 14.19737054 60812
GOES 18                 
1 51850U 22021A   22249.48294497  .00000081  00000+0  00000+0 0  9999
2 51850   0.0325  57.2633 0002851 149.6740 175.5009  1.00272950  1941
